OBJECT_NAME,OBJECT_ID,EPOCH,MEAN_MOTION,ECCENTRICITY,INCLINATION,RA_OF_ASC_NODE,ARG_OF_PERICENTER,MEAN_ANOMALY,EPHEMERIS_TYPE,CLASSIFICATION_TYPE,NORAD_CAT_ID,ELEMENT_SET_NO,REV_AT_EPOCH,BSTAR,MEAN_MOTION_DOT,MEAN_MOTION_DDOT
GAOFEN-11 01,2018-063A,2026-07-04T14:33:31.830624,15.55809132,.00021153,97.1273,252.4419,255.4509,104.6512,0,U,43585,999,44305,.33419736E-3,.23014E-3,0
ICESAT-2,2018-070A,2026-07-04T13:44:26.202336,15.28206138,.000607,92.0091,295.6769,87.7212,272.4732,0,U,43613,999,43511,.67860947E-3,.18674E-3,0
HYSIS,2018-096A,2026-07-04T14:28:11.413632,14.78653012,.00018735,97.9830,252.2141,89.8232,270.3193,0,U,43719,999,40999,.17979239E-3,.1265E-4,0
KAZSTSAT,2018-099AB,2026-07-04T12:13:51.679488,14.99932801,.00081693,97.4306,216.6545,19.9379,340.2163,0,U,43783,999,41390,.19997988E-3,.2428E-4,0
SAUDISAT 5A,2018-102A,2026-07-04T15:33:41.314176,15.28238971,.00111415,97.3053,246.8940,76.3959,283.8521,0,U,43831,999,41834,.35390615E-3,.9685E-4,0
SAUDISAT 5B,2018-102C,2026-07-04T14:22:24.077856,15.28485351,.00118987,97.3162,249.9466,78.1584,282.0989,0,U,43833,999,41845,.33696779E-3,.9289E-4,0
GAOFEN-10R,2019-066A,2026-07-04T15:05:10.155264,14.83040917,.00071961,98.0504,139.3351,80.2597,279.9428,0,U,44622,999,36496,.19258066E-3,.1512E-4,0
CARTOSAT-3,2019-081A,2026-07-04T14:40:07.887360,15.19267301,.00135575,97.4291,247.1978,93.6224,266.6561,0,U,44804,999,36611,.29941065E-3,.6261E-4,0
GAOFEN-12 01,2019-082A,2026-07-04T15:39:35.366688,14.80473616,.00015366,97.8104,191.5710,53.8536,306.2819,0,U,44819,999,35667,.70880818E-4,.492E-5,0
CSG-1,2019-092A,2026-07-03T10:57:11.816928,14.82158959,.00014246,97.8892,7.8235,91.1235,269.0142,0,U,44873,999,35388,.74034059E-4,.537E-5,0
NEMO-HD,2020-061F,2026-07-04T14:52:17.409216,15.44965204,.00013339,97.1905,247.3995,74.4343,285.7054,0,U,46277,999,32467,.3953942E-3,.18553E-3,0
SENTINEL-6A,2020-086A,2026-07-04T11:54:50.478912,12.80930021,.00078375,66.0414,99.1022,270.0559,89.9558,0,U,46984,999,26254,.98233676E-4,-.38E-6,0
CAS500-1,2021-022A,2026-07-04T15:18:59.887296,15.20181114,.00037673,97.3877,80.5366,211.9501,148.1506,0,U,47932,999,29341,.47527819E-3,.10231E-3,0
GAOFEN-12 02,2021-026A,2026-07-04T14:20:52.969920,14.80310317,.00050885,97.9927,183.7075,161.4002,198.7397,0,U,48079,999,28433,.69126434E-4,.474E-5,0
PLEIADES NEO 3,2021-034A,2026-07-04T14:36:57.095424,14.81672479,.00013419,97.8936,260.1251,89.0590,271.0776,0,U,48268,999,28023,-.11174061E-4,-.14E-5,0
PLEIADES NEO 4,2021-073E,2026-07-03T11:52:22.041120,14.81667489,.00013341,97.8935,259.0231,88.9745,271.1620,0,U,49070,999,26378,.76520154E-4,.55E-5,0
LANDSAT 9,2021-088A,2026-07-04T10:23:03.268608,14.57109516,.00011673,98.2274,255.4009,88.6853,271.4479,0,U,49260,999,25351,.10112164E-3,.41E-5,0
CSG-2,2022-008A,2026-07-04T15:18:27.245376,14.82155415,.00015514,97.8887,8.9820,85.5038,274.6352,0,U,51444,999,23917,-.5658742E-5,-.97E-6,0
GAOFEN-12 03,2022-069A,2026-07-04T15:08:19.918176,14.80060192,.0002425,97.8255,73.0596,84.6356,275.5133,0,U,52912,999,21719,.51362057E-4,.338E-5,0
SWOT,2022-173A,2026-07-04T11:52:08.528160,14.00171765,.00003147,77.6102,11.9445,84.6748,275.4440,0,U,54754,999,18157,.66493816E-4,.96E-6,0
GAOFEN-12 04,2023-123A,2026-07-04T15:33:37.535904,14.79762247,.00039036,97.9110,103.4080,71.5936,288.5700,0,U,57654,999,15521,.1966381E-3,.1428E-4,0
PARS 1,2024-039Q,2026-07-04T14:20:03.835968,15.46107074,.00109223,97.4836,167.0700,60.4075,299.8261,0,U,59065,999,13133,.34765978E-3,.1698E-3,0
RESURS-P 4,2024-061A,2026-07-04T15:14:51.608256,15.32234411,.00031274,97.2759,133.2313,105.1246,255.0342,0,U,59371,999,12643,.14013446E-3,.4285E-4,0
LEGION 1,2024-081A,2026-07-04T04:22:22.824768,15.16784699,.00080141,97.5010,262.8586,315.2129,44.8456,0,U,59625,999,12011,.22970719E-3,.4447E-4,0
LEGION 2,2024-081B,2026-07-04T11:25:54.068736,15.16766847,.00098387,97.5011,263.2468,276.0808,83.9304,0,U,59626,999,12016,.24547293E-3,.4756E-4,0
ALOS-4 (DAICHI-4),2024-123A,2026-07-02T20:23:03.331104,14.79475621,.00016106,97.9220,280.8007,97.4056,262.7339,0,U,60182,999,10819,.22752435E-3,.1648E-4,0
LEGION 3,2024-146A,2026-07-04T14:14:07.498176,15.15606298,.00088762,45.0023,297.2135,279.2220,80.7654,0,U,60452,999,10466,.326605E-3,.6055E-4,0
LEGION 4,2024-146B,2026-07-04T14:16:46.253856,15.16181116,.00117096,45.0023,29.0966,45.8597,314.3243,0,U,60453,999,10351,.35331499E-3,.6687E-4,0
SENTINEL-2C,2024-157A,2026-07-04T10:41:10.728384,14.30813178,.00009172,98.5686,259.9829,93.9148,266.2139,0,U,60989,999,9545,.34872286E-4,.48E-6,0
IONOSFERA-M 1,2024-199A,2026-07-04T15:13:49.725120,14.22757784,.00022035,98.7150,58.6208,87.0812,273.0618,0,U,61735,999,13018,.58810206E-4,.88E-6,0
