GAOFEN-11 01            
1 43585U 18063A   26185.60661841  .00023014  00000+0  33420-3 0  9991
2 43585  97.1273 252.4419 0002115 255.4509 104.6512 15.55809132443056
ICESAT-2                
1 43613U 18070A   26185.57252549  .00018674  00000+0  67861-3 0  9990
2 43613  92.0091 295.6769 0006070  87.7212 272.4732 15.28206138435111
HYSIS                   
1 43719U 18096A   26185.60290988  .00001265  00000+0  17979-3 0  9991
2 43719  97.9830 252.2141 0001873  89.8232 270.3193 14.78653012409993
KAZSTSAT                
1 43783U 18099AB  26185.50962592  .00002428  00000+0  19998-3 0  9996
2 43783  97.4306 216.6545 0008169  19.9379 340.2163 14.99932801413909
SAUDISAT 5A             
1 43831U 18102A   26185.64839484  .00009685  00000+0  35391-3 0  9990
2 43831  97.3053 246.8940 0011141  76.3959 283.8521 15.28238971418343
SAUDISAT 5B             
1 43833U 18102C   26185.59888979  .00009289  00000+0  33697-3 0  9996
2 43833  97.3162 249.9466 0011898  78.1584 282.0989 15.28485351418453
GAOFEN-10R              
1 44622U 19066A   26185.62858976  .00001512  00000+0  19258-3 0  9999
2 44622  98.0504 139.3351 0007196  80.2597 279.9428 14.83040917364961
CARTOSAT-3              
1 44804U 19081A   26185.61120240  .00006261  00000+0  29941-3 0  9999
2 44804  97.4291 247.1978 0013557  93.6224 266.6561 15.19267301366113
GAOFEN-12 01            
1 44819U 19082A   26185.65249267  .00000492  00000+0  70881-4 0  9991
2 44819  97.8104 191.5710 0001536  53.8536 306.2819 14.80473616356672
CSG-1                   
1 44873U 19092A   26184.45638677  .00000537  00000+0  74034-4 0  9990
2 44873  97.8892   7.8235 0001424  91.1235 269.0142 14.82158959353881
NEMO-HD                 
1 46277U 20061F   26185.61964594  .00018553  00000+0  39539-3 0  9994
2 46277  97.1905 247.3995 0001333  74.4343 285.7054 15.44965204324676
SENTINEL-6A             
1 46984U 20086A   26185.49641758 -.00000038  00000+0  98234-4 0  9994
2 46984  66.0414  99.1022 0007837 270.0559  89.9558 12.80930021262549
CAS500-1                
1 47932U 21022A   26185.63819314  .00010231  00000+0  47528-3 0  9994
2 47932  97.3877  80.5366 0003767 211.9501 148.1506 15.20181114293416
GAOFEN-12 02            
1 48079U 21026A   26185.59783530  .00000474  00000+0  69126-4 0  9993
2 48079  97.9927 183.7075 0005088 161.4002 198.7397 14.80310317284331
PLEIADES NEO 3          
1 48268U 21034A   26185.60899416 -.00000140  00000+0 -11174-4 0  9997
2 48268  97.8936 260.1251 0001341  89.0590 271.0776 14.81672479280233
PLEIADES NEO 4          
1 49070U 21073E   26184.49469955  .00000550  00000+0  76520-4 0  9998
2 49070  97.8935 259.0231 0001334  88.9745 271.1620 14.81667489263786
LANDSAT 9               
1 49260U 21088A   26185.43267672  .00000410  00000+0  10112-3 0  9991
2 49260  98.2274 255.4009 0001167  88.6853 271.4479 14.57109516253512
CSG-2                   
1 51444U 22008A   26185.63781534 -.00000097  00000+0 -56587-5 0  9992
2 51444  97.8887   8.9820 0001551  85.5038 274.6352 14.82155415239172
GAOFEN-12 03            
1 52912U 22069A   26185.63078609  .00000338  00000+0  51362-4 0  9993
2 52912  97.8255  73.0596 0002425  84.6356 275.5133 14.80060192217199
SWOT                    
1 54754U 22173A   26185.49454315  .00000096  00000+0  66494-4 0  9994
2 54754  77.6102  11.9445 0000314  84.6748 275.4440 14.00171765181579
GAOFEN-12 04            
1 57654U 23123A   26185.64835111  .00001428  00000+0  19664-3 0  9992
2 57654  97.9110 103.4080 0003903  71.5936 288.5700 14.79762247155211
PARS 1                  
1 59065U 24039Q   26185.59726662  .00016980  00000+0  34766-3 0  9990
2 59065  97.4836 167.0700 0010922  60.4075 299.8261 15.46107074131334
RESURS-P 4              
1 59371U 24061A   26185.63531954  .00004285  00000+0  14013-3 0  9996
2 59371  97.2759 133.2313 0003127 105.1246 255.0342 15.32234411126437
LEGION 1                
1 59625U 24081A   26185.18220862  .00004447  00000+0  22971-3 0  9995
2 59625  97.5010 262.8586 0008014 315.2129  44.8456 15.16784699120116
LEGION 2                
1 59626U 24081B   26185.47632024  .00004756  00000+0  24547-3 0  9999
2 59626  97.5011 263.2468 0009838 276.0808  83.9304 15.16766847120161
ALOS-4 (DAICHI-4)       
1 60182U 24123A   26183.84934411  .00001648  00000+0  22752-3 0  9992
2 60182  97.9220 280.8007 0001610  97.4056 262.7339 14.79475621108199
LEGION 3                
1 60452U 24146A   26185.59314234  .00006055  00000+0  32660-3 0  9992
2 60452  45.0023 297.2135 0008876 279.2220  80.7654 15.15606298104665
LEGION 4                
1 60453U 24146B   26185.59497979  .00006687  00000+0  35331-3 0  9990
2 60453  45.0023  29.0966 0011709  45.8597 314.3243 15.16181116103513
SENTINEL-2C             
1 60989U 24157A   26185.44526306  .00000048  00000+0  34872-4 0  9992
2 60989  98.5686 259.9829 0000917  93.9148 266.2139 14.30813178 95459
IONOSFERA-M 1           
1 61735U 24199A   26185.63460330  .00000088  00000+0  58810-4 0  9995
2 61735  98.7150  58.6208 0002203  87.0812 273.0618 14.22757784130183
